HIERARCHY
ROOT Hips
{
    OFFSET 0.00 0.00 0.00
    CHANNELS 6 Xposition Yposition Zposition Zrotation Xrotation Yrotation
    JOINT Spine
    {
        OFFSET 0.00 0.50 0.00
        CHANNELS 3 Zrotation Xrotation Yrotation
        JOINT RightArm
        {
            OFFSET -0.35 0.35 0.00
            CHANNELS 3 Zrotation Xrotation Yrotation
            JOINT RightForeArm
            {
                OFFSET -0.45 0.00 0.00
                CHANNELS 3 Zrotation Xrotation Yrotation
                End Site
                {
                    OFFSET -0.30 0.00 0.00
                }
            }
        }
        End Site
        {
            OFFSET 0.00 0.50 0.00
        }
    }
}
MOTION
Frames: 25
Frame Time: 0.0416667
0.0000 0.0000 0.0000 0.0000 0.0000 0.0000 0.0000 0.0000 0.0000 -20.0000 0.0000 0.0000 -55.0000 0.0000 0.0000
0.0000 0.0000 0.0000 0.0000 0.4000 0.0000 0.0000 0.8000 0.0000 -25.0000 0.0000 -2.0000 -62.0000 0.0000 0.0000
0.0000 0.0000 0.0000 0.0000 0.8000 0.0000 0.0000 1.6000 0.0000 -30.0000 0.0000 -4.0000 -69.0000 0.0000 0.0000
0.0000 0.0000 0.0000 0.0000 1.2000 0.0000 0.0000 2.4000 0.0000 -35.0000 0.0000 -6.0000 -76.0000 0.0000 0.0000
0.0000 0.0000 0.0000 0.0000 1.6000 0.0000 0.0000 3.2000 0.0000 -40.0000 0.0000 -8.0000 -83.0000 0.0000 0.0000
0.0000 0.0000 0.0000 0.0000 2.0000 0.0000 0.0000 4.0000 0.0000 -45.0000 0.0000 -10.0000 -90.0000 0.0000 0.0000
0.0000 0.0000 0.0000 0.0000 2.0000 0.0000 0.0000 4.0000 0.0000 -45.0000 0.0000 -12.0000 -105.0000 0.0000 0.0000
0.0000 0.0000 0.0000 0.0000 2.0000 0.0000 0.0000 4.0000 0.0000 -45.0000 0.0000 -8.0000 -75.0000 0.0000 0.0000
0.0000 0.0000 0.0000 0.0000 2.0000 0.0000 0.0000 4.0000 0.0000 -45.0000 0.0000 -12.0000 -105.0000 0.0000 0.0000
0.0000 0.0000 0.0000 0.0000 2.0000 0.0000 0.0000 4.0000 0.0000 -45.0000 0.0000 -8.0000 -75.0000 0.0000 0.0000
0.0000 0.0000 0.0000 0.0000 2.0000 0.0000 0.0000 4.0000 0.0000 -45.0000 0.0000 -12.0000 -105.0000 0.0000 0.0000
0.0000 0.0000 0.0000 0.0000 2.0000 0.0000 0.0000 4.0000 0.0000 -45.0000 0.0000 -8.0000 -75.0000 0.0000 0.0000
0.0000 0.0000 0.0000 0.0000 2.0000 0.0000 0.0000 4.0000 0.0000 -45.0000 0.0000 -12.0000 -105.0000 0.0000 0.0000
0.0000 0.0000 0.0000 0.0000 2.0000 0.0000 0.0000 4.0000 0.0000 -45.0000 0.0000 -8.0000 -75.0000 0.0000 0.0000
0.0000 0.0000 0.0000 0.0000 2.0000 0.0000 0.0000 4.0000 0.0000 -45.0000 0.0000 -12.0000 -105.0000 0.0000 0.0000
0.0000 0.0000 0.0000 0.0000 2.0000 0.0000 0.0000 4.0000 0.0000 -45.0000 0.0000 -8.0000 -75.0000 0.0000 0.0000
0.0000 0.0000 0.0000 0.0000 2.0000 0.0000 0.0000 4.0000 0.0000 -45.0000 0.0000 -12.0000 -105.0000 0.0000 0.0000
0.0000 0.0000 0.0000 0.0000 2.0000 0.0000 0.0000 4.0000 0.0000 -45.0000 0.0000 -8.0000 -75.0000 0.0000 0.0000
0.0000 0.0000 0.0000 0.0000 2.0000 0.0000 0.0000 4.0000 0.0000 -45.0000 0.0000 -12.0000 -105.0000 0.0000 0.0000
0.0000 0.0000 0.0000 0.0000 1.6000 0.0000 0.0000 3.2000 0.0000 -40.0000 0.0000 -8.0000 -83.0000 0.0000 0.0000
0.0000 0.0000 0.0000 0.0000 1.2000 0.0000 0.0000 2.4000 0.0000 -35.0000 0.0000 -6.0000 -76.0000 0.0000 0.0000
0.0000 0.0000 0.0000 0.0000 0.8000 0.0000 0.0000 1.6000 0.0000 -30.0000 0.0000 -4.0000 -69.0000 0.0000 0.0000
0.0000 0.0000 0.0000 0.0000 0.4000 0.0000 0.0000 0.8000 0.0000 -25.0000 0.0000 -2.0000 -62.0000 0.0000 0.0000
0.0000 0.0000 0.0000 0.0000 0.0000 0.0000 0.0000 0.0000 0.0000 -20.0000 0.0000 0.0000 -55.0000 0.0000 0.0000
0.0000 0.0000 0.0000 0.0000 0.0000 0.0000 0.0000 0.0000 0.0000 -20.0000 0.0000 0.0000 -55.0000 0.0000 0.0000
